GLOBALSTAR M069         
1 31573U 07020C   26159.60469081 -.00000081  00000+0  11057-3 0  9991
2 31573  52.0042 276.4182 0002508 130.4181 254.3041 12.23470945877757
GLOBALSTAR M072         
1 31574U 07020D   26159.60849498 -.00000070  00000+0  19037-3 0  9990
2 31574  51.9911 123.0836 0001382 308.2541 237.3996 11.91658460873950
GLOBALSTAR M066         
1 32265U 07048C   26159.57695130 -.00000126  00000+0 -26860-3 0  9991
2 32265  51.9589  82.6289 0005325  25.5133 172.2088 12.30388621859167
GLOBALSTAR M079         
1 37188U 10054A   26159.11315969 -.00000092  00000+0  63574-4 0  9995
2 37188  52.0016 136.2918 0000487   0.5369  78.3475 12.62265970721403
GLOBALSTAR M074         
1 37189U 10054B   26159.20423487 -.00000097  00000+0  38127-4 0  9992
2 37189  51.9993 135.2810 0000343  45.3805 327.7188 12.62268412722024
GLOBALSTAR M076         
1 37190U 10054C   26159.66371463 -.00000095  00000+0  50599-4 0  9995
2 37190  52.0007 134.0842 0000552  32.1971 150.1476 12.62261830721794
GLOBALSTAR M077         
1 37191U 10054D   26159.84498080 -.00000079  00000+0 -26011-4 0  9996
2 37191  51.9931 200.4708 0002863 157.6075  16.6937 11.67547589720163
GLOBALSTAR M075         
1 37192U 10054E   26159.75407309 -.00000098  00000+0  30963-4 0  9992
2 37192  51.9919 175.8703 0000044 146.0122  26.8540 12.62267337720871
GLOBALSTAR M073         
1 37193U 10054F   26159.59796816 -.00000099  00000+0  28192-4 0  9991
2 37193  52.0059  90.4372 0000753  30.4069 151.4185 12.62262133722844
GLOBALSTAR M083         
1 37739U 11033A   26159.82563624 -.00000104  00000+0  40373-6 0  9994
2 37739  51.9873  37.9847 0000829  55.4950  22.8010 12.62262899691892
GLOBALSTAR M088         
1 37740U 11033B   26159.18672167 -.00000087  00000+0  92801-4 0  9999
2 37740  52.0229 306.3380 0000842 112.7304  59.0579 12.62268578687359
GLOBALSTAR M091         
1 37741U 11033C   26159.56342353 -.00000088  00000+0  87788-4 0  9992
2 37741  52.0004 268.1694 0000514 138.1388 247.3624 12.62263772688191
GLOBALSTAR M085         
1 37742U 11033D   26159.48823635 -.00000097  00000+0  39541-4 0  9995
2 37742  52.0112 219.6834 0000198 183.0147 280.7564 12.62263924688697
GLOBALSTAR M081         
1 37743U 11033E   26159.51571834 -.00000101  00000+0  14917-4 0  9997
2 37743  51.9942 222.0459 0000239 129.7042 338.5925 12.62264781688847
GLOBALSTAR M089         
1 37744U 11033F   26159.80747022 -.00000087  00000+0  91012-4 0  9998
2 37744  51.9904 175.3175 0000366 102.0449  73.4621 12.62267017689728
GLOBALSTAR M084         
1 38040U 11080A   26159.42615512 -.00000101  00000+0  16057-4 0  9999
2 38040  52.0026  43.9537 0001024  72.4812 109.3735 12.62267499667650
GLOBALSTAR M080         
1 38041U 11080B   26159.39659255 -.00000098  00000+0  29579-4 0  9996
2 38041  52.0075  45.7586 0000288  67.4343 110.0133 12.62269277667773
GLOBALSTAR M082         
1 38042U 11080C   26159.85418877 -.00000090  00000+0  75286-4 0  9999
2 38042  52.0098 359.8658 0000544  87.6948 300.3065 12.62269913668549
GLOBALSTAR M092         
1 38043U 11080D   26159.54513586 -.00000092  00000+0  64220-4 0  9997
2 38043  52.0084  91.2024 0000545  51.4535 130.4591 12.62266878666957
GLOBALSTAR M090         
1 38044U 11080E   26159.73406631 -.00000090  00000+0  74584-4 0  9993
2 38044  52.0144 354.1848 0000803  80.8408 359.9677 12.62269016668640
GLOBALSTAR M086         
1 38045U 11080F   26159.86443286 -.00000084  00000+0  11270-3 0  9990
2 38045  51.9915 353.7315 0001634  53.0337 160.8893 12.62286593668609
GLOBALSTAR M097         
1 39072U 13005A   26159.45250025 -.00000124  00000+0 -11130-3 0  9993
2 39072  52.0053 269.9252 0000470 121.1355 238.9558 12.62247114615802
GLOBALSTAR M093         
1 39073U 13005B   26159.58421066 -.00000090  00000+0  76950-4 0  9996
2 39073  52.0110 262.8678 0000321 107.2155 252.8747 12.62265735615779
GLOBALSTAR M094         
1 39074U 13005C   26159.34657960 -.00000094  00000+0  53823-4 0  9993
2 39074  51.9930 177.7168 0000185 332.5307  27.5550 12.62268544617352
GLOBALSTAR M096         
1 39075U 13005D   26159.43921592 -.00000093  00000+0  59448-4 0  9997
2 39075  52.0061 226.2298 0000201 162.0712 198.0162 12.62265418616280
GLOBALSTAR M078         
1 39076U 13005E   26159.72892656 -.00000133  00000+0 -16329-3 0  9994
2 39076  51.9893 309.3673 0000570 193.2700 166.8152 12.62259544614940
GLOBALSTAR M095         
1 39077U 13005F   26159.12222783 -.00000092  00000+0  63136-4 0  9999
2 39077  52.0095 308.8064 0000386 121.3808 238.7096 12.62263356614729
GLOBALSTAR M087         
1 52888U 22064A   26159.53142996 -.00000088  00000+0  90051-4 0  9992
2 52888  51.9996  88.8038 0000578  18.8339 341.2549 12.62268976190040
