OBJECT_NAME,OBJECT_ID,EPOCH,MEAN_MOTION,ECCENTRICITY,INCLINATION,RA_OF_ASC_NODE,ARG_OF_PERICENTER,MEAN_ANOMALY,EPHEMERIS_TYPE,CLASSIFICATION_TYPE,NORAD_CAT_ID,ELEMENT_SET_NO,REV_AT_EPOCH,BSTAR,MEAN_MOTION_DOT,MEAN_MOTION_DDOT
GLOBALSTAR M069,2007-020C,2026-06-08T14:30:45.285984,12.23470945,.00025084,52.0042,276.4182,130.4181,254.3041,0,U,31573,999,87775,.11057141E-3,-.81E-6,0
GLOBALSTAR M072,2007-020D,2026-06-08T14:36:13.966272,11.91658460,.0001382,51.9911,123.0836,308.2541,237.3996,0,U,31574,999,87395,.19037E-3,-.7E-6,0
GLOBALSTAR M066,2007-048C,2026-06-08T13:50:48.592320,12.30388621,.00053252,51.9589,82.6289,25.5133,172.2088,0,U,32265,999,85916,-.26860246E-3,-.126E-5,0
GLOBALSTAR M079,2010-054A,2026-06-08T02:42:56.997216,12.62265970,.00004878,52.0016,136.2918,0.5369,78.3475,0,U,37188,999,72140,.63574091E-4,-.92E-6,0
GLOBALSTAR M074,2010-054B,2026-06-08T04:54:05.892768,12.62268412,.00003432,51.9993,135.2810,45.3805,327.7188,0,U,37189,999,72202,.38126856E-4,-.97E-6,0
GLOBALSTAR M076,2010-054C,2026-06-08T15:55:44.944032,12.62261830,.0000552,52.0007,134.0842,32.1971,150.1476,0,U,37190,999,72179,.50599E-4,-.95E-6,0
GLOBALSTAR M077,2010-054D,2026-06-08T20:16:46.341120,11.67547589,.0002863,51.9931,200.4708,157.6075,16.6937,0,U,37191,999,72016,-.26011E-4,-.79E-6,0
GLOBALSTAR M075,2010-054E,2026-06-08T18:05:51.914976,12.62267337,.0000044,51.9919,175.8703,146.0122,26.8540,0,U,37192,999,72087,.30963E-4,-.98E-6,0
GLOBALSTAR M073,2010-054F,2026-06-08T14:21:04.449024,12.62262133,.00007531,52.0059,90.4372,30.4069,151.4185,0,U,37193,999,72284,.28192332E-4,-.99E-6,0
GLOBALSTAR M083,2011-033A,2026-06-08T19:48:54.971136,12.62262899,.0000829,51.9873,37.9847,55.4950,22.8010,0,U,37739,999,69189,.40373E-6,-.104E-5,0
GLOBALSTAR M088,2011-033B,2026-06-08T04:28:52.752288,12.62268578,.00008428,52.0229,306.3380,112.7304,59.0579,0,U,37740,999,68735,.92800544E-4,-.87E-6,0
GLOBALSTAR M091,2011-033C,2026-06-08T13:31:19.792992,12.62263772,.00005147,52.0004,268.1694,138.1388,247.3624,0,U,37741,999,68819,.87788268E-4,-.88E-6,0
GLOBALSTAR M085,2011-033D,2026-06-08T11:43:03.620640,12.62263924,.00001983,52.0112,219.6834,183.0147,280.7564,0,U,37742,999,68869,.39541178E-4,-.97E-6,0
GLOBALSTAR M081,2011-033E,2026-06-08T12:22:38.064576,12.62264781,.00002393,51.9942,222.0459,129.7042,338.5925,0,U,37743,999,68884,.14916713E-4,-.101E-5,0
GLOBALSTAR M089,2011-033F,2026-06-08T19:22:45.427008,12.62267017,.0000366,51.9904,175.3175,102.0449,73.4621,0,U,37744,999,68972,.91012E-4,-.87E-6,0
GLOBALSTAR M084,2011-080A,2026-06-08T10:13:39.802368,12.62267499,.00010243,52.0026,43.9537,72.4812,109.3735,0,U,38040,999,66765,.16057426E-4,-.101E-5,0
GLOBALSTAR M080,2011-080B,2026-06-08T09:31:05.596320,12.62269277,.00002883,52.0075,45.7586,67.4343,110.0133,0,U,38041,999,66777,.29579382E-4,-.98E-6,0
GLOBALSTAR M082,2011-080C,2026-06-08T20:30:01.909728,12.62269913,.0000544,52.0098,359.8658,87.6948,300.3065,0,U,38042,999,66854,.75286E-4,-.9E-6,0
GLOBALSTAR M092,2011-080D,2026-06-08T13:04:59.738304,12.62266878,.00005453,52.0084,91.2024,51.4535,130.4591,0,U,38043,999,66695,.64219939E-4,-.92E-6,0
GLOBALSTAR M090,2011-080E,2026-06-08T17:37:03.329184,12.62269016,.0000803,52.0144,354.1848,80.8408,359.9677,0,U,38044,999,66864,.74584E-4,-.9E-6,0
GLOBALSTAR M086,2011-080F,2026-06-08T20:44:46.999104,12.62286593,.0001634,51.9915,353.7315,53.0337,160.8893,0,U,38045,999,66860,.1127E-3,-.84E-6,0
GLOBALSTAR M097,2013-005A,2026-06-08T10:51:36.021600,12.62247114,.00004701,52.0053,269.9252,121.1355,238.9558,0,U,39072,999,61580,-.11130015E-3,-.124E-5,0
GLOBALSTAR M093,2013-005B,2026-06-08T14:01:15.801024,12.62265735,.00003211,52.0110,262.8678,107.2155,252.8747,0,U,39073,999,61577,.76949866E-4,-.9E-6,0
GLOBALSTAR M094,2013-005C,2026-06-08T08:19:04.477440,12.62268544,.00001857,51.9930,177.7168,332.5307,27.5550,0,U,39074,999,61735,.53822641E-4,-.94E-6,0
GLOBALSTAR M096,2013-005D,2026-06-08T10:32:28.255488,12.62265418,.00002013,52.0061,226.2298,162.0712,198.0162,0,U,39075,999,61628,.5944795E-4,-.93E-6,0
GLOBALSTAR M078,2013-005E,2026-06-08T17:29:39.254784,12.62259544,.000057,51.9893,309.3673,193.2700,166.8152,0,U,39076,999,61494,-.16329E-3,-.133E-5,0
GLOBALSTAR M095,2013-005F,2026-06-08T02:56:00.484512,12.62263356,.00003866,52.0095,308.8064,121.3808,238.7096,0,U,39077,999,61472,.63135564E-4,-.92E-6,0
GLOBALSTAR M087,2022-064A,2026-06-08T12:45:15.548544,12.62268976,.00005781,51.9996,88.8038,18.8339,341.2549,0,U,52888,999,19004,.90051394E-4,-.88E-6,0
